[Satellite]
VERSION=1.1
NAME=IRIDIUM 110
NICKNAME=IRIDIUM 110
TLE1=1 43481U 18047F   20157.73169582  .00000056  00000-0  12985-4 0  9996
TLE2=2 43481  86.3957 288.7451 0002003  86.6791 273.4634 14.34216863106797
STATUS=0
